[
    {
        "Altitude(m)": 607897.614732368,
        "Argument of Periapsis(deg)": 0.0,
        "Eccentricity": 0.0,
        "Inclination(deg)": 60.0,
        "Latitude(deg)": -14.292935068084072,
        "Longitude(deg)": 36.61878072778272,
        "Mean Anomaly(deg)": -16.363600000000062,
        "RAAN(deg)": 145.0,
        "Satellite Name": "Test1 659",
        "Satellite Number": 659,
        "Semi-Major Axis(m)": 6980739.136638005,
        "Time(s)": 0
    },
    {
        "Altitude(m)": 607750.8159275238,
        "Argument of Periapsis(deg)": 0.00010418945913296404,
        "Eccentricity": 0.0,
        "Inclination(deg)": 60.0,
        "Latitude(deg)": -13.758775958684815,
        "Longitude(deg)": 36.90584865888435,
        "Mean Anomaly(deg)": -15.74349385453821,
        "RAAN(deg)": 144.99957995086027,
        "Satellite Name": "Test1 659",
        "Satellite Number": 659,
        "Semi-Major Axis(m)": 6980739.136638005,
        "Time(s)": 10
    },
    {
        "Altitude(m)": 607606.5414135958,
        "Argument of Periapsis(deg)": 0.0002083789182659281,
        "Eccentricity": 0.0,
        "Inclination(deg)": 60.0,
        "Latitude(deg)": -13.22414210476723,
        "Longitude(deg)": 37.19144019314446,
        "Mean Anomaly(deg)": -15.123387709076383,
        "RAAN(deg)": 144.99915990172053,
        "Satellite Name": "Test1 659",
        "Satellite Number": 659,
        "Semi-Major Axis(m)": 6980739.136638005,
        "Time(s)": 20
    },
    {
        "Altitude(m)": 607464.8355627486,
        "Argument of Periapsis(deg)": 0.00031256837739889213,
        "Eccentricity": 0.0,
        "Inclination(deg)": 60.0,
        "Latitude(deg)": -12.689053810743843,
        "Longitude(deg)": 37.47562000983085,
        "Mean Anomaly(deg)": -14.503281563614529,
        "RAAN(deg)": 144.99873985258077,
        "Satellite Name": "Test1 659",
        "Satellite Number": 659,
        "Semi-Major Axis(m)": 6980739.136638005,
        "Time(s)": 30
    },
    {
        "Altitude(m)": 607325.7414700594,
        "Argument of Periapsis(deg)": 0.0004167578365318562,
        "Eccentricity": 0.0,
        "Inclination(deg)": 60.0,
        "Latitude(deg)": -12.153531108481802,
        "Longitude(deg)": 37.75845244555817,
        "Mean Anomaly(deg)": -13.883175418152701,
        "RAAN(deg)": 144.99831980344103,
        "Satellite Name": "Test1 659",
        "Satellite Number": 659,
        "Semi-Major Axis(m)": 6980739.136638005,
        "Time(s)": 40
    },
    {
        "Altitude(m)": 607189.3009351976,
        "Argument of Periapsis(deg)": 0.0005209472956648203,
        "Eccentricity": 0.0,
        "Inclination(deg)": 60.0,
        "Latitude(deg)": -11.617593771245684,
        "Longitude(deg)": 38.040000525822066,
        "Mean Anomaly(deg)": -13.263069272690847,
        "RAAN(deg)": 144.9978997543013,
        "Satellite Name": "Test1 659",
        "Satellite Number": 659,
        "Semi-Major Axis(m)": 6980739.136638005,
        "Time(s)": 50
    },
    {
        "Altitude(m)": 607055.554444735,
        "Argument of Periapsis(deg)": 0.0006251367547977843,
        "Eccentricity": 0.0,
        "Inclination(deg)": 60.0,
        "Latitude(deg)": -11.08126132728283,
        "Longitude(deg)": 38.320326508729686,
        "Mean Anomaly(deg)": -12.642963127229018,
        "RAAN(deg)": 144.99747970516157,
        "Satellite Name": "Test1 659",
        "Satellite Number": 659,
        "Semi-Major Axis(m)": 6980739.136638005,
        "Time(s)": 60
    },
    {
        "Altitude(m)": 606924.541155085,
        "Argument of Periapsis(deg)": 0.0007293262139307483,
        "Eccentricity": 0.0,
        "Inclination(deg)": 60.0,
        "Latitude(deg)": -10.544553073071864,
        "Longitude(deg)": 38.599492428082705,
        "Mean Anomaly(deg)": -12.022856981767166,
        "RAAN(deg)": 144.9970596560218,
        "Satellite Name": "Test1 659",
        "Satellite Number": 659,
        "Semi-Major Axis(m)": 6980739.136638005,
        "Time(s)": 70
    },
    {
        "Altitude(m)": 606796.2988761142,
        "Argument of Periapsis(deg)": 0.0008335156730637124,
        "Eccentricity": 0.0,
        "Inclination(deg)": 60.0,
        "Latitude(deg)": -10.007488086255865,
        "Longitude(deg)": 38.87755912296917,
        "Mean Anomaly(deg)": -11.402750836305442,
        "RAAN(deg)": 144.99663960688207,
        "Satellite Name": "Test1 659",
        "Satellite Number": 659,
        "Semi-Major Axis(m)": 6980739.136638005,
        "Time(s)": 80
    },
    {
        "Altitude(m)": 606670.8640553689,
        "Argument of Periapsis(deg)": 0.0009377051321966765,
        "Eccentricity": 0.0,
        "Inclination(deg)": 60.0,
        "Latitude(deg)": -9.470085238272263,
        "Longitude(deg)": 39.15458677963806,
        "Mean Anomaly(deg)": -10.782644690843588,
        "RAAN(deg)": 144.99621955774234,
        "Satellite Name": "Test1 659",
        "Satellite Number": 659,
        "Semi-Major Axis(m)": 6980739.136638005,
        "Time(s)": 90
    },
    {
        "Altitude(m)": 606548.2717630031,
        "Argument of Periapsis(deg)": 0.0010418945913296407,
        "Eccentricity": 0.0,
        "Inclination(deg)": 60.0,
        "Latitude(deg)": -8.932363206701064,
        "Longitude(deg)": 39.43063547281415,
        "Mean Anomaly(deg)": -10.16253854538166,
        "RAAN(deg)": 144.9957995086026,
        "Satellite Name": "Test1 659",
        "Satellite Number": 659,
        "Semi-Major Axis(m)": 6980739.136638005,
        "Time(s)": 100
    },
    {
        "Altitude(m)": 606428.5556773518,
        "Argument of Periapsis(deg)": 0.0011460840504626045,
        "Eccentricity": 0.0,
        "Inclination(deg)": 60.0,
        "Latitude(deg)": -8.394340487349073,
        "Longitude(deg)": 39.705764193607486,
        "Mean Anomaly(deg)": -9.542432399919907,
        "RAAN(deg)": 144.99537945946284,
        "Satellite Name": "Test1 659",
        "Satellite Number": 659,
        "Semi-Major Axis(m)": 6980739.136638005,
        "Time(s)": 110
    },
    {
        "Altitude(m)": 606311.748071211,
        "Argument of Periapsis(deg)": 0.0012502735095955685,
        "Eccentricity": 0.0,
        "Inclination(deg)": 60.0,
        "Latitude(deg)": -7.856035406082233,
        "Longitude(deg)": 39.98003138979596,
        "Mean Anomaly(deg)": -8.92232625445808,
        "RAAN(deg)": 144.9949594103231,
        "Satellite Name": "Test1 659",
        "Satellite Number": 659,
        "Semi-Major Axis(m)": 6980739.136638005,
        "Time(s)": 120
    },
    {
        "Altitude(m)": 606197.8797987744,
        "Argument of Periapsis(deg)": 0.0013544629687285324,
        "Eccentricity": 0.0,
        "Inclination(deg)": 60.0,
        "Latitude(deg)": -7.317466130426444,
        "Longitude(deg)": 40.253495505633204,
        "Mean Anomaly(deg)": -8.302220108996227,
        "RAAN(deg)": 144.99453936118337,
        "Satellite Name": "Test1 659",
        "Satellite Number": 659,
        "Semi-Major Axis(m)": 6980739.136638005,
        "Time(s)": 130
    },
    {
        "Altitude(m)": 606086.9802832848,
        "Argument of Periapsis(deg)": 0.0014586524278614966,
        "Eccentricity": 0.0,
        "Inclination(deg)": 60.0,
        "Latitude(deg)": -6.778650680952937,
        "Longitude(deg)": 40.526214008341896,
        "Mean Anomaly(deg)": -7.6821139635344,
        "RAAN(deg)": 144.99411931204364,
        "Satellite Name": "Test1 659",
        "Satellite Number": 659,
        "Semi-Major Axis(m)": 6980739.136638005,
        "Time(s)": 140
    },
    {
        "Altitude(m)": 605979.0775053854,
        "Argument of Periapsis(deg)": 0.0015628418869944607,
        "Eccentricity": 0.0,
        "Inclination(deg)": 60.0,
        "Latitude(deg)": -6.239606942460256,
        "Longitude(deg)": 40.798243927065535,
        "Mean Anomaly(deg)": -7.062007818072648,
        "RAAN(deg)": 144.99369926290387,
        "Satellite Name": "Test1 659",
        "Satellite Number": 659,
        "Semi-Major Axis(m)": 6980739.136638005,
        "Time(s)": 150
    },
    {
        "Altitude(m)": 605874.1979921852,
        "Argument of Periapsis(deg)": 0.0016670313461274247,
        "Eccentricity": 0.0,
        "Inclination(deg)": 60.0,
        "Latitude(deg)": -5.700352674969989,
        "Longitude(deg)": 41.06964239143628,
        "Mean Anomaly(deg)": -6.441901672610719,
        "RAAN(deg)": 144.99327921376414,
        "Satellite Name": "Test1 659",
        "Satellite Number": 659,
        "Semi-Major Axis(m)": 6980739.136638005,
        "Time(s)": 160
    },
    {
        "Altitude(m)": 605772.3668070029,
        "Argument of Periapsis(deg)": 0.0017712208052603888,
        "Eccentricity": 0.0,
        "Inclination(deg)": 60.0,
        "Latitude(deg)": -5.160905524554916,
        "Longitude(deg)": 41.34046565691347,
        "Mean Anomaly(deg)": -5.821795527148968,
        "RAAN(deg)": 144.9928591646244,
        "Satellite Name": "Test1 659",
        "Satellite Number": 659,
        "Semi-Major Axis(m)": 6980739.136638005,
        "Time(s)": 170
    },
    {
        "Altitude(m)": 605673.6075398722,
        "Argument of Periapsis(deg)": 0.001875410264393353,
        "Eccentricity": 0.0,
        "Inclination(deg)": 60.0,
        "Latitude(deg)": -4.621283034006616,
        "Longitude(deg)": 41.61076964267048,
        "Mean Anomaly(deg)": -5.20168938168714,
        "RAAN(deg)": 144.99243911548467,
        "Satellite Name": "Test1 659",
        "Satellite Number": 659,
        "Semi-Major Axis(m)": 6980739.136638005,
        "Time(s)": 180
    },
    {
        "Altitude(m)": 605577.9422987615,
        "Argument of Periapsis(deg)": 0.0019795997235263173,
        "Eccentricity": 0.0,
        "Inclination(deg)": 60.0,
        "Latitude(deg)": -4.081502653363239,
        "Longitude(deg)": 41.880610469183786,
        "Mean Anomaly(deg)": -4.581583236225287,
        "RAAN(deg)": 144.99201906634488,
        "Satellite Name": "Test1 659",
        "Satellite Number": 659,
        "Semi-Major Axis(m)": 6980739.136638005,
        "Time(s)": 190
    }
]